start=new Date('2023-04-10T00:00:00.000Z').valueOf();
sats=[{"RA_OF_ASC_NODE":"206.6630","EPOCH":"2023-04-09T21:30:21.137472","SEMIMAJOR_AXIS":"6925.357","LAUNCH_DATE":"2020-04-22","OBJECT_NAME":"STARLINK-1373","DECAY_DATE":null,"PERIOD":"95.592","MEAN_ELEMENT_THEORY":"SGP4","TIME_SYSTEM":"UTC","ELEMENT_SET_NO":"999","MEAN_MOTION_DOT":"-0.00022372","FILE":"3884641","REV_AT_EPOCH":"16460","GP_ID":"229805207","NORAD_CAT_ID":"45544","ECCENTRICITY":"0.00019790","MEAN_MOTION_DDOT":"0.0000000000000","INCLINATION":"53.0518","BSTAR":"-0.00148780000000","PERIAPSIS":"545.851","OBJECT_TYPE":"PAYLOAD","ARG_OF_PERICENTER":"56.3945","SITE":"AFETR","RCS_SIZE":"LARGE","MEAN_ANOMALY":"303.7233","OBJECT_ID":"2020-025P","APOAPSIS":"548.592","REF_FRAME":"TEME","CENTER_NAME":"EARTH","EPHEMERIS_TYPE":"0","MEAN_MOTION":"15.06397264","TLE_LINE1":"1 45544U 20025P   23099.89607798 -.00022372  00000-0 -14878-2 0  9996","TLE_LINE2":"2 45544  53.0518 206.6630 0001979  56.3945 303.7233 15.06397264164608","CLASSIFICATION_TYPE":"U","COUNTRY_CODE":"US"},{"CLASSIFICATION_TYPE":"U","COUNTRY_CODE":"US","TLE_LINE2":"2 45545  53.0537 208.0648 0001535  64.5589 295.5559 15.06433276164533","TLE_LINE1":"1 45545U 20025Q   23099.58277486  .00035469  00000-0  23860-2 0  9990","MEAN_MOTION":"15.06433276","EPHEMERIS_TYPE":"0","CENTER_NAME":"EARTH","OBJECT_ID":"2020-025Q","APOAPSIS":"548.175","REF_FRAME":"TEME","RCS_SIZE":"LARGE","MEAN_ANOMALY":"295.5559","SITE":"AFETR","ARG_OF_PERICENTER":"64.5589","PERIAPSIS":"546.049","OBJECT_TYPE":"PAYLOAD","BSTAR":"0.00238600000000","MEAN_MOTION_DDOT":"0.0000000000000","INCLINATION":"53.0537","ECCENTRICITY":"0.00015350","NORAD_CAT_ID":"45545","GP_ID":"229805452","REV_AT_EPOCH":"16453","FILE":"3884641","MEAN_MOTION_DOT":"0.00035469","TIME_SYSTEM":"UTC","ELEMENT_SET_NO":"999","MEAN_ELEMENT_THEORY":"SGP4","PERIOD":"95.590","DECAY_DATE":null,"OBJECT_NAME":"STARLINK-1374","LAUNCH_DATE":"2020-04-22","EPOCH":"2023-04-09T13:59:11.747904","SEMIMAJOR_AXIS":"6925.247","RA_OF_ASC_NODE":"208.0648"},{"ARG_OF_PERICENTER":"82.5684","OBJECT_TYPE":"PAYLOAD","PERIAPSIS":"546.341","SITE":"AFETR","RCS_SIZE":"LARGE","MEAN_ANOMALY":"277.5441","OBJECT_ID":"2020-025R","APOAPSIS":"547.998","REF_FRAME":"TEME","CENTER_NAME":"EARTH","EPHEMERIS_TYPE":"0","TLE_LINE1":"1 45546U 20025R   23099.52748204  .00017376  00000-0  11821-2 0  9997","MEAN_MOTION":"15.06414377","COUNTRY_CODE":"US","CLASSIFICATION_TYPE":"U","TLE_LINE2":"2 45546  53.0554 208.3170 0001196  82.5684 277.5441 15.06414377164547","EPOCH":"2023-04-09T12:39:34.448256","SEMIMAJOR_AXIS":"6925.304","RA_OF_ASC_NODE":"208.3170","DECAY_DATE":null,"LAUNCH_DATE":"2020-04-22","OBJECT_NAME":"STARLINK-1375","MEAN_ELEMENT_THEORY":"SGP4","PERIOD":"95.591","FILE":"3884641","MEAN_MOTION_DOT":"0.00017376","TIME_SYSTEM":"UTC","ELEMENT_SET_NO":"999","NORAD_CAT_ID":"45546","REV_AT_EPOCH":"16454","GP_ID":"229806701","INCLINATION":"53.0554","MEAN_MOTION_DDOT":"0.0000000000000","ECCENTRICITY":"0.00011960","BSTAR":"0.00118210000000"},{"MEAN_ELEMENT_THEORY":"SGP4","PERIOD":"95.590","FILE":"3884641","MEAN_MOTION_DOT":"0.00025115","TIME_SYSTEM":"UTC","ELEMENT_SET_NO":"999","EPOCH":"2023-04-09T17:20:52.932768","SEMIMAJOR_AXIS":"6925.246","RA_OF_ASC_NODE":"207.4398","DECAY_DATE":null,"LAUNCH_DATE":"2020-04-22","OBJECT_NAME":"STARLINK-1377","BSTAR":"0.00169740000000","NORAD_CAT_ID":"45547","GP_ID":"229806444","REV_AT_EPOCH":"16458","MEAN_MOTION_DDOT":"0.0000000000000","INCLINATION":"53.0534","ECCENTRICITY":"0.00012870","RCS_SIZE":"LARGE","MEAN_ANOMALY":"276.1534","OBJECT_ID":"2020-025S","APOAPSIS":"548.002","REF_FRAME":"TEME","ARG_OF_PERICENTER":"83.9601","OBJECT_TYPE":"PAYLOAD","PERIAPSIS":"546.220","SITE":"AFETR","TLE_LINE1":"1 45547U 20025S   23099.72283487  .00025115  00000-0  16974-2 0  9991","MEAN_MOTION":"15.06433480","CLASSIFICATION_TYPE":"U","COUNTRY_CODE":"US","TLE_LINE2":"2 45547  53.0534 207.4398 0001287  83.9601 276.1534 15.06433480164581","CENTER_NAME":"EARTH","EPHEMERIS_TYPE":"0"},{"OBJECT_ID":"2020-025T","APOAPSIS":"548.171","REF_FRAME":"TEME","RCS_SIZE":"LARGE","MEAN_ANOMALY":"284.5688","SITE":"AFETR","ARG_OF_PERICENTER":"75.5469","OBJECT_TYPE":"PAYLOAD","PERIAPSIS":"546.081","COUNTRY_CODE":"US","CLASSIFICATION_TYPE":"U","TLE_LINE2":"2 45548  53.0546 207.9209 0001509  75.5469 284.5688 15.06428464164553","TLE_LINE1":"1 45548U 20025T   23099.61594363  .00022644  00000-0  15330-2 0  9997","MEAN_MOTION":"15.06428464","EPHEMERIS_TYPE":"0","CENTER_NAME":"EARTH","MEAN_MOTION_DOT":"0.00022644","FILE":"3884641","TIME_SYSTEM":"UTC","ELEMENT_SET_NO":"999","MEAN_ELEMENT_THEORY":"SGP4","PERIOD":"95.590","DECAY_DATE":null,"LAUNCH_DATE":"2020-04-22","OBJECT_NAME":"STARLINK-1378","EPOCH":"2023-04-09T14:46:57.529632","SEMIMAJOR_AXIS":"6925.261","RA_OF_ASC_NODE":"207.9209","BSTAR":"0.00153300000000","MEAN_MOTION_DDOT":"0.0000000000000","INCLINATION":"53.0546","ECCENTRICITY":"0.00015090","NORAD_CAT_ID":"45548","GP_ID":"229805708","REV_AT_EPOCH":"16455"},{"MEAN_MOTION":"15.08169295","TLE_LINE1":"1 45550U 20025V   23099.68286432  .00027480  00000-0  17698-2 0  9994","TLE_LINE2":"2 45550  53.0535 207.4418 0002402   8.3822 351.7207 15.08169295164562","COUNTRY_CODE":"US","CLASSIFICATION_TYPE":"U","CENTER_NAME":"EARTH","EPHEMERIS_TYPE":"0","MEAN_ANOMALY":"351.7207","RCS_SIZE":"LARGE","REF_FRAME":"TEME","OBJECT_ID":"2020-025V","APOAPSIS":"543.458","PERIAPSIS":"540.134","OBJECT_TYPE":"PAYLOAD","ARG_OF_PERICENTER":"8.3822","SITE":"AFETR","BSTAR":"0.00176980000000","REV_AT_EPOCH":"16456","GP_ID":"229805953","NORAD_CAT_ID":"45550","ECCENTRICITY":"0.00024020","INCLINATION":"53.0535","MEAN_MOTION_DDOT":"0.0000000000000","PERIOD":"95.480","MEAN_ELEMENT_THEORY":"SGP4","ELEMENT_SET_NO":"999","TIME_SYSTEM":"UTC","MEAN_MOTION_DOT":"0.00027480","FILE":"3884641","RA_OF_ASC_NODE":"207.4418","SEMIMAJOR_AXIS":"6919.931","EPOCH":"2023-04-09T16:23:19.477248","OBJECT_NAME":"STARLINK-1390","LAUNCH_DATE":"2020-04-22","DECAY_DATE":null},{"SITE":"AFETR","OBJECT_TYPE":"PAYLOAD","PERIAPSIS":"546.187","ARG_OF_PERICENTER":"93.1118","APOAPSIS":"547.957","OBJECT_ID":"2020-025W","REF_FRAME":"TEME","RCS_SIZE":"LARGE","MEAN_ANOMALY":"267.0017","EPHEMERIS_TYPE":"0","CENTER_NAME":"EARTH","TLE_LINE2":"2 45551  53.0512 187.8303 0001278  93.1118 267.0017 15.06446156164843","COUNTRY_CODE":"US","CLASSIFICATION_TYPE":"U","MEAN_MOTION":"15.06446156","TLE_LINE1":"1 45551U 20025W   23099.63623111  .00040796  00000-0  27385-2 0  9998","OBJECT_NAME":"STARLINK-1294","LAUNCH_DATE":"2020-04-22","DECAY_DATE":null,"RA_OF_ASC_NODE":"187.8303","EPOCH":"2023-04-09T15:16:10.367904","SEMIMAJOR_AXIS":"6925.207","TIME_SYSTEM":"UTC","ELEMENT_SET_NO":"999","FILE":"3884641","MEAN_MOTION_DOT":"0.00040796","PERIOD":"95.589","MEAN_ELEMENT_THEORY":"SGP4","ECCENTRICITY":"0.00012780","MEAN_MOTION_DDOT":"0.0000000000000","INCLINATION":"53.0512","REV_AT_EPOCH":"16484","GP_ID":"229806201","NORAD_CAT_ID":"45551","BSTAR":"0.00273850000000"},{"RA_OF_ASC_NODE":"187.7794","SEMIMAJOR_AXIS":"6925.223","EPOCH":"2023-04-09T15:32:04.909920","LAUNCH_DATE":"2020-04-22","OBJECT_NAME":"STARLINK-1323","DECAY_DATE":null,"PERIOD":"95.590","MEAN_ELEMENT_THEORY":"SGP4","ELEMENT_SET_NO":"999","TIME_SYSTEM":"UTC","MEAN_MOTION_DOT":"0.00032095","FILE":"3884641","GP_ID":"229806945","REV_AT_EPOCH":"16355","NORAD_CAT_ID":"45553","ECCENTRICITY":"0.00014310","INCLINATION":"53.0518","MEAN_MOTION_DDOT":"0.0000000000000","BSTAR":"0.00216140000000","OBJECT_TYPE":"PAYLOAD","PERIAPSIS":"546.097","ARG_OF_PERICENTER":"84.7756","SITE":"AFETR","MEAN_ANOMALY":"275.3396","RCS_SIZE":"LARGE","REF_FRAME":"TEME","OBJECT_ID":"2020-025Y","APOAPSIS":"548.079","CENTER_NAME":"EARTH","EPHEMERIS_TYPE":"0","MEAN_MOTION":"15.06441036","TLE_LINE1":"1 45553U 20025Y   23099.64727905  .00032095  00000-0  21614-2 0  9999","TLE_LINE2":"2 45553  53.0518 187.7794 0001431  84.7756 275.3396 15.06441036163550","CLASSIFICATION_TYPE":"U","COUNTRY_CODE":"US"},{"BSTAR":"0.00254760000000","NORAD_CAT_ID":"45554","REV_AT_EPOCH":"16482","GP_ID":"229805208","INCLINATION":"53.0518","MEAN_MOTION_DDOT":"0.0000000000000","ECCENTRICITY":"0.00011430","MEAN_ELEMENT_THEORY":"SGP4","PERIOD":"95.589","FILE":"3884641","MEAN_MOTION_DOT":"0.00037928","TIME_SYSTEM":"UTC","ELEMENT_SET_NO":"999","EPOCH":"2023-04-09T12:09:01.068768","SEMIMAJOR_AXIS":"6925.174","RA_OF_ASC_NODE":"188.4025","DECAY_DATE":null,"LAUNCH_DATE":"2020-04-22","OBJECT_NAME":"STARLINK-1325","TLE_LINE1":"1 45554U 20025Z   23099.50626237  .00037928  00000-0  25476-2 0  9991","MEAN_MOTION":"15.06456901","CLASSIFICATION_TYPE":"U","COUNTRY_CODE":"US","TLE_LINE2":"2 45554  53.0518 188.4025 0001143  89.0470 271.0650 15.06456901164821","CENTER_NAME":"EARTH","EPHEMERIS_TYPE":"0","RCS_SIZE":"LARGE","MEAN_ANOMALY":"271.0650","APOAPSIS":"547.831","OBJECT_ID":"2020-025Z","REF_FRAME":"TEME","ARG_OF_PERICENTER":"89.0470","PERIAPSIS":"546.248","OBJECT_TYPE":"PAYLOAD","SITE":"AFETR"},{"COUNTRY_CODE":"US","CLASSIFICATION_TYPE":"U","TLE_LINE2":"2 45555  53.0530 188.5706 0001297  70.6808 289.4322 15.06445476164817","TLE_LINE1":"1 45555U 20025AA  23099.47034349  .00032965  00000-0  22189-2 0  9999","MEAN_MOTION":"15.06445476","EPHEMERIS_TYPE":"0","CENTER_NAME":"EARTH","REF_FRAME":"TEME","OBJECT_ID":"2020-025AA","APOAPSIS":"547.972","MEAN_ANOMALY":"289.4322","RCS_SIZE":"LARGE","SITE":"AFETR","ARG_OF_PERICENTER":"70.6808","OBJECT_TYPE":"PAYLOAD","PERIAPSIS":"546.176","BSTAR":"0.00221890000000","MEAN_MOTION_DDOT":"0.0000000000000","INCLINATION":"53.0530","ECCENTRICITY":"0.00012970","NORAD_CAT_ID":"45555","REV_AT_EPOCH":"16481","GP_ID":"229771217","MEAN_MOTION_DOT":"0.00032965","FILE":"3884332","ELEMENT_SET_NO":"999","TIME_SYSTEM":"UTC","MEAN_ELEMENT_THEORY":"SGP4","PERIOD":"95.589","DECAY_DATE":null,"OBJECT_NAME":"STARLINK-1327","LAUNCH_DATE":"2020-04-22","SEMIMAJOR_AXIS":"6925.209","EPOCH":"2023-04-09T11:17:17.677536","RA_OF_ASC_NODE":"188.5706"}];
